{
  "type": "FeatureCollection",
  "features": [
    {
      "type": "Feature",
      "properties": {
        "norad_id": 29268,
        "name": "ARIRANG-2 (KOMPSAT-2)",
        "group": "resource",
        "lat": -28.87990347898873,
        "lon": -12.712990637260143,
        "alt_km": 688.2958837522401,
        "timestamp": "2025-12-08T23:34:03.626044+00:00",
        "meta_object_name": "ARIRANG-2 (KOMPSAT-2)",
        "meta_object_id": "2006-031A",
        "meta_epoch": "2025-12-08T14:45:03.828096",
        "meta_mean_motion": 14.64488719,
        "meta_eccentricity": 0.00136689,
        "meta_inclination": 97.8269,
        "meta_ra_of_asc_node": 171.2889,
        "meta_arg_of_pericenter": 322.7953,
        "meta_mean_anomaly": 110.8077,
        "meta_ephemeris_type": 0,
        "meta_classification_type": "U",
        "meta_norad_cat_id": 29268,
        "meta_element_set_no": 999,
        "meta_rev_at_epoch": 3358,
        "meta_bstar": 0.0001571807,
        "meta_mean_motion_dot": 7.89e-06,
        "meta_mean_motion_ddot": 0,
        "tle_line1": "1 29268U 06031A   25342.61462764  .00000789  00000+0  15718-3 0  9997",
        "tle_line2": "2 29268  97.8269 171.2889 0013668 322.7953 110.8077 14.64488719 33586"
      },
      "geometry": {
        "type": "Point",
        "coordinates": [
          -12.712990637260143,
          -28.87990347898873
        ]
      }
    },
    {
      "type": "Feature",
      "properties": {
        "norad_id": 29709,
        "name": "LAPAN-TUBSAT",
        "group": "resource",
        "lat": -37.417532180656785,
        "lon": 146.78621417698565,
        "alt_km": 624.3413433815531,
        "timestamp": "2025-12-08T23:34:03.626055+00:00",
        "meta_object_name": "LAPAN-TUBSAT",
        "meta_object_id": "2007-001A",
        "meta_epoch": "2025-12-08T14:30:34.377120",
        "meta_mean_motion": 14.85661716,
        "meta_eccentricity": 0.00136464,
        "meta_inclination": 98.1254,
        "meta_ra_of_asc_node": 332.6761,
        "meta_arg_of_pericenter": 86.5827,
        "meta_mean_anomaly": 273.6948,
        "meta_ephemeris_type": 0,
        "meta_classification_type": "U",
        "meta_norad_cat_id": 29709,
        "meta_element_set_no": 999,
        "meta_rev_at_epoch": 2285,
        "meta_bstar": 0.00015871958,
        "meta_mean_motion_dot": 1.32e-05,
        "meta_mean_motion_ddot": 0,
        "tle_line1": "1 29709U 07001A   25342.60456455  .00001320  00000+0  15872-3 0  9997",
        "tle_line2": "2 29709  98.1254 332.6761 0013646  86.5827 273.6948 14.85661716 22853"
      },
      "geometry": {
        "type": "Point",
        "coordinates": [
          146.78621417698565,
          -37.417532180656785
        ]
      }
    },
    {
      "type": "Feature",
      "properties": {
        "norad_id": 31113,
        "name": "HAIYANG-1B",
        "group": "resource",
        "lat": 57.04395453926088,
        "lon": 160.47811009001603,
        "alt_km": 780.0803408253087,
        "timestamp": "2025-12-08T23:34:03.626066+00:00",
        "meta_object_name": "HAIYANG-1B",
        "meta_object_id": "2007-010A",
        "meta_epoch": "2025-12-08T12:55:55.789824",
        "meta_mean_motion": 14.30963057,
        "meta_eccentricity": 0.00144338,
        "meta_inclination": 98.331,
        "meta_ra_of_asc_node": 326.9906,
        "meta_arg_of_pericenter": 49.6655,
        "meta_mean_anomaly": 310.5788,
        "meta_ephemeris_type": 0,
        "meta_classification_type": "U",
        "meta_norad_cat_id": 31113,
        "meta_element_set_no": 999,
        "meta_rev_at_epoch": 97336,
        "meta_bstar": 0.00011511142,
        "meta_mean_motion_dot": 2.61e-06,
        "meta_mean_motion_ddot": 0,
        "tle_line1": "1 31113U 07010A   25342.53884016  .00000261  00000+0  11511-3 0  9998",
        "tle_line2": "2 31113  98.3310 326.9906 0014433  49.6655 310.5788 14.30963057973368"
      },
      "geometry": {
        "type": "Point",
        "coordinates": [
          160.47811009001603,
          57.04395453926088
        ]
      }
    },
    {
      "type": "Feature",
      "properties": {
        "norad_id": 31598,
        "name": "COSMO-SKYMED 1",
        "group": "resource",
        "lat": 37.16645464413263,
        "lon": 162.32704490832236,
        "alt_km": 576.9584050261246,
        "timestamp": "2025-12-08T23:34:03.626077+00:00",
        "meta_object_name": "COSMO-SKYMED 1",
        "meta_object_id": "2007-023A",
        "meta_epoch": "2025-12-08T13:46:00.447456",
        "meta_mean_motion": 14.95717172,
        "meta_eccentricity": 0.00010586,
        "meta_inclination": 97.8834,
        "meta_ra_of_asc_node": 167.946,
        "meta_arg_of_pericenter": 81.2716,
        "meta_mean_anomaly": 278.8625,
        "meta_ephemeris_type": 0,
        "meta_classification_type": "U",
        "meta_norad_cat_id": 31598,
        "meta_element_set_no": 999,
        "meta_rev_at_epoch": 128,
        "meta_bstar": 0.0005162512,
        "meta_mean_motion_dot": 5.691e-05,
        "meta_mean_motion_ddot": 0,
        "tle_line1": "1 31598U 07023A   25342.57361629  .00005691  00000+0  51625-3 0  9995",
        "tle_line2": "2 31598  97.8834 167.9460 0001058  81.2716 278.8625 14.95717172  1282"
      },
      "geometry": {
        "type": "Point",
        "coordinates": [
          162.32704490832236,
          37.16645464413263
        ]
      }
    },
    {
      "type": "Feature",
      "properties": {
        "norad_id": 31698,
        "name": "TERRASAR-X",
        "group": "resource",
        "lat": 79.43872565626152,
        "lon": -147.04581020051978,
        "alt_km": 499.85114510967287,
        "timestamp": "2025-12-08T23:34:03.626088+00:00",
        "meta_object_name": "TERRASAR-X",
        "meta_object_id": "2007-026A",
        "meta_epoch": "2025-12-08T12:04:27.873696",
        "meta_mean_motion": 15.19158704,
        "meta_eccentricity": 0.00017239,
        "meta_inclination": 97.4451,
        "meta_ra_of_asc_node": 347.9445,
        "meta_arg_of_pericenter": 89.3855,
        "meta_mean_anomaly": 270.7577,
        "meta_ephemeris_type": 0,
        "meta_classification_type": "U",
        "meta_norad_cat_id": 31698,
        "meta_element_set_no": 999,
        "meta_rev_at_epoch": 2427,
        "meta_bstar": 0.00014009101,
        "meta_mean_motion_dot": 2.877e-05,
        "meta_mean_motion_ddot": 0,
        "tle_line1": "1 31698U 07026A   25342.50310039  .00002877  00000+0  14009-3 0  9999",
        "tle_line2": "2 31698  97.4451 347.9445 0001723  89.3855 270.7577 15.19158704 24277"
      },
      "geometry": {
        "type": "Point",
        "coordinates": [
          -147.04581020051978,
          79.43872565626152
        ]
      }
    },
    {
      "type": "Feature",
      "properties": {
        "norad_id": 32060,
        "name": "WORLDVIEW-1 (WV-1)",
        "group": "resource",
        "lat": 24.326698576735122,
        "lon": 97.155231853811,
        "alt_km": 491.3477670190623,
        "timestamp": "2025-12-08T23:34:03.626099+00:00",
        "meta_object_name": "WORLDVIEW-1 (WV-1)",
        "meta_object_id": "2007-041A",
        "meta_epoch": "2025-12-08T14:00:32.811840",
        "meta_mean_motion": 15.24584013,
        "meta_eccentricity": 7.807e-05,
        "meta_inclination": 97.3842,
        "meta_ra_of_asc_node": 100.1238,
        "meta_arg_of_pericenter": 101.7843,
        "meta_mean_anomaly": 258.3482,
        "meta_ephemeris_type": 0,
        "meta_classification_type": "U",
        "meta_norad_cat_id": 32060,
        "meta_element_set_no": 999,
        "meta_rev_at_epoch": 1384,
        "meta_bstar": 0.00045944672,
        "meta_mean_motion_dot": 0.0001126,
        "meta_mean_motion_ddot": 0,
        "tle_line1": "1 32060U 07041A   25342.58371310  .00011260  00000+0  45945-3 0  9996",
        "tle_line2": "2 32060  97.3842 100.1238 0000780 101.7843 258.3482 15.24584013 13841"
      },
      "geometry": {
        "type": "Point",
        "coordinates": [
          97.155231853811,
          24.326698576735122
        ]
      }
    },
    {
      "type": "Feature",
      "properties": {
        "norad_id": 32289,
        "name": "YAOGAN-3",
        "group": "resource",
        "lat": -33.01320221780634,
        "lon": 14.775050749689795,
        "alt_km": 604.9503010280705,
        "timestamp": "2025-12-08T23:34:03.626109+00:00",
        "meta_object_name": "YAOGAN-3",
        "meta_object_id": "2007-055A",
        "meta_epoch": "2025-12-08T14:02:44.371392",
        "meta_mean_motion": 14.89829776,
        "meta_eccentricity": 0.00014206,
        "meta_inclination": 97.8368,
        "meta_ra_of_asc_node": 9.2477,
        "meta_arg_of_pericenter": 76.5709,
        "meta_mean_anomaly": 283.5667,
        "meta_ephemeris_type": 0,
        "meta_classification_type": "U",
        "meta_norad_cat_id": 32289,
        "meta_element_set_no": 999,
        "meta_rev_at_epoch": 97747,
        "meta_bstar": 0.00041788929,
        "meta_mean_motion_dot": 3.958e-05,
        "meta_mean_motion_ddot": 0,
        "tle_line1": "1 32289U 07055A   25342.58523578  .00003958  00000+0  41789-3 0  9996",
        "tle_line2": "2 32289  97.8368   9.2477 0001420  76.5709 283.5667 14.89829776977479"
      },
      "geometry": {
        "type": "Point",
        "coordinates": [
          14.775050749689795,
          -33.01320221780634
        ]
      }
    }
  ]
}